STARLINK-5785           
1 56031U 23042AX  26070.50003471  .00027709  00000+0  17860-2 0  9999
2 56031  43.0009  33.0785 0001794 281.6094 118.8715 15.07824369  5810
STARLINK-5786           
1 56032U 23042AY  26070.50003471  .00027861  00000+0  18744-2 0  9991
2 56032  43.0006  32.9254 0001369 296.0641 168.5493 15.06240911  5766
STARLINK-5782           
1 56034U 23042BA  26068.95394960  .00013647  00000+0  10205-2 0  9996
2 56034  43.0078  41.3527 0002755 292.0892  67.9658 15.02639801163102
STARLINK-5792           
1 56035U 23042BB  26070.29139219  .00000832  00000+0  76667-4 0  9999
2 56035  43.0033  34.1882 0001102 275.6832  84.3885 15.02540834163308
STARLINK-5790           
1 56036U 23042BC  26070.22046251  .00001993  00000+0  16251-3 0  9997
2 56036  43.0065  34.5124 0001543 281.6751  78.3919 15.02550701163296
STARLINK-5758           
1 56037U 23042BD  26070.50003471  .00046630  00000+0  24593-2 0  9990
2 56037  43.0010  19.6660 0001066 286.7391 266.2505 15.14851018  5812
STARLINK-5793           
1 56038U 23042BE  26070.50003471  .00028013  00000+0  19444-2 0  9995
2 56038  43.0008  32.9078 0001377 311.1117 160.7693 15.05077448  5616
STARLINK-5795           
1 56039U 23042BF  26070.50003471  .00014745  00000+0  81302-3 0  9996
2 56039  43.0011  19.6628 0000876 295.0398 256.7577 15.13801442  5804
STARLINK-5798           
1 56040U 23042BG  26070.50003471  .00018758  00000+0  10672-2 0  9997
2 56040  43.0012  19.7619 0001321 297.1219 210.7035 15.12545848  5802
STARLINK-5800           
1 56041U 23042BH  26070.23297030 -.00004427  00000+0 -31300-3 0  9996
2 56041  43.0066  21.5507 0001184 274.9708  85.0999 15.02515598163447
STARLINK-6109           
1 56094U 23046B   26070.50003471  .00037096  00000+0  23901-2 0  9995
2 56094  43.0003 149.2575 0002243 264.4030  61.8395 15.07719177  5719
STARLINK-6090           
1 56095U 23046C   26070.50003471  .00038948  00000+0  24844-2 0  9990
2 56095  43.0002 149.3269 0002189 254.7168  42.8691 15.08067743  5818
STARLINK-6089           
1 56096U 23046D   26070.50003471  .00038143  00000+0  25236-2 0  9994
2 56096  43.0003 149.2600 0001293 295.8796  27.3556 15.06731908  5767
STARLINK-6077           
1 56097U 23046E   26070.37863927 -.00000113  00000+0  66763-5 0  9990
2 56097  43.0017  97.9228 0001038 265.1373  94.9350 15.02534188162916
STARLINK-6088           
1 56098U 23046F   26070.50003471  .00038343  00000+0  24230-2 0  9991
2 56098  43.0002 149.2806 0002060 260.6658  57.3064 15.08418868  5818
STARLINK-6076           
1 56100U 23046H   26070.50003471  .00032823  00000+0  21064-2 0  9994
2 56100  43.0015 149.1144 0002280 270.4350 115.3095 15.07914653  5565
STARLINK-6095           
1 56101U 23046J   26070.30114543  .00001190  00000+0  10317-3 0  9999
2 56101  43.0020 150.2608 0001494 272.8711  87.1960 15.02534746162302
