[{"OBJECT_NAME":"STARLINK-5785","OBJECT_ID":"2023-042AX","EPOCH":"2026-03-11T12:00:02.998944","MEAN_MOTION":15.07824369,"ECCENTRICITY":0.0001794,"INCLINATION":43.0009,"RA_OF_ASC_NODE":33.0785,"ARG_OF_PERICENTER":281.6094,"MEAN_ANOMALY":118.8715,"EPHEMERIS_TYPE":0,"CLASSIFICATION_TYPE":"U","NORAD_CAT_ID":56031,"ELEMENT_SET_NO":999,"REV_AT_EPOCH":581,"BSTAR":0.001786,"MEAN_MOTION_DOT":0.00027709,"MEAN_MOTION_DDOT":0},{"OBJECT_NAME":"STARLINK-5786","OBJECT_ID":"2023-042AY","EPOCH":"2026-03-11T12:00:02.998944","MEAN_MOTION":15.06240911,"ECCENTRICITY":0.0001369,"INCLINATION":43.0006,"RA_OF_ASC_NODE":32.9254,"ARG_OF_PERICENTER":296.0641,"MEAN_ANOMALY":168.5493,"EPHEMERIS_TYPE":0,"CLASSIFICATION_TYPE":"U","NORAD_CAT_ID":56032,"ELEMENT_SET_NO":999,"REV_AT_EPOCH":576,"BSTAR":0.0018744,"MEAN_MOTION_DOT":0.00027861,"MEAN_MOTION_DDOT":0},{"OBJECT_NAME":"STARLINK-5782","OBJECT_ID":"2023-042BA","EPOCH":"2026-03-09T22:53:41.245440","MEAN_MOTION":15.02639801,"ECCENTRICITY":0.00027556,"INCLINATION":43.0078,"RA_OF_ASC_NODE":41.3527,"ARG_OF_PERICENTER":292.0892,"MEAN_ANOMALY":67.9658,"EPHEMERIS_TYPE":0,"CLASSIFICATION_TYPE":"U","NORAD_CAT_ID":56034,"ELEMENT_SET_NO":999,"REV_AT_EPOCH":16310,"BSTAR":0.0010204921,"MEAN_MOTION_DOT":0.00013647,"MEAN_MOTION_DDOT":0},{"OBJECT_NAME":"STARLINK-5792","OBJECT_ID":"2023-042BB","EPOCH":"2026-03-11T06:59:36.285216","MEAN_MOTION":15.02540834,"ECCENTRICITY":0.0001102,"INCLINATION":43.0033,"RA_OF_ASC_NODE":34.1882,"ARG_OF_PERICENTER":275.6832,"MEAN_ANOMALY":84.3885,"EPHEMERIS_TYPE":0,"CLASSIFICATION_TYPE":"U","NORAD_CAT_ID":56035,"ELEMENT_SET_NO":999,"REV_AT_EPOCH":16330,"BSTAR":7.6667e-5,"MEAN_MOTION_DOT":8.32e-6,"MEAN_MOTION_DDOT":0},{"OBJECT_NAME":"STARLINK-5790","OBJECT_ID":"2023-042BC","EPOCH":"2026-03-11T05:17:27.960864","MEAN_MOTION":15.02550701,"ECCENTRICITY":0.0001543,"INCLINATION":43.0065,"RA_OF_ASC_NODE":34.5124,"ARG_OF_PERICENTER":281.6751,"MEAN_ANOMALY":78.3919,"EPHEMERIS_TYPE":0,"CLASSIFICATION_TYPE":"U","NORAD_CAT_ID":56036,"ELEMENT_SET_NO":999,"REV_AT_EPOCH":16329,"BSTAR":0.00016251,"MEAN_MOTION_DOT":1.993e-5,"MEAN_MOTION_DDOT":0},{"OBJECT_NAME":"STARLINK-5758","OBJECT_ID":"2023-042BD","EPOCH":"2026-03-11T12:00:02.998944","MEAN_MOTION":15.14851018,"ECCENTRICITY":0.0001066,"INCLINATION":43.001,"RA_OF_ASC_NODE":19.666,"ARG_OF_PERICENTER":286.7391,"MEAN_ANOMALY":266.2505,"EPHEMERIS_TYPE":0,"CLASSIFICATION_TYPE":"U","NORAD_CAT_ID":56037,"ELEMENT_SET_NO":999,"REV_AT_EPOCH":581,"BSTAR":0.0024593,"MEAN_MOTION_DOT":0.0004663,"MEAN_MOTION_DDOT":0},{"OBJECT_NAME":"STARLINK-5793","OBJECT_ID":"2023-042BE","EPOCH":"2026-03-11T12:00:02.998944","MEAN_MOTION":15.05077448,"ECCENTRICITY":0.0001377,"INCLINATION":43.0008,"RA_OF_ASC_NODE":32.9078,"ARG_OF_PERICENTER":311.1117,"MEAN_ANOMALY":160.7693,"EPHEMERIS_TYPE":0,"CLASSIFICATION_TYPE":"U","NORAD_CAT_ID":56038,"ELEMENT_SET_NO":999,"REV_AT_EPOCH":561,"BSTAR":0.0019444,"MEAN_MOTION_DOT":0.00028013,"MEAN_MOTION_DDOT":0},{"OBJECT_NAME":"STARLINK-5795","OBJECT_ID":"2023-042BF","EPOCH":"2026-03-11T12:00:02.998944","MEAN_MOTION":15.13801442,"ECCENTRICITY":8.76e-5,"INCLINATION":43.0011,"RA_OF_ASC_NODE":19.6628,"ARG_OF_PERICENTER":295.0398,"MEAN_ANOMALY":256.7577,"EPHEMERIS_TYPE":0,"CLASSIFICATION_TYPE":"U","NORAD_CAT_ID":56039,"ELEMENT_SET_NO":999,"REV_AT_EPOCH":580,"BSTAR":0.00081302,"MEAN_MOTION_DOT":0.00014745,"MEAN_MOTION_DDOT":0},{"OBJECT_NAME":"STARLINK-5798","OBJECT_ID":"2023-042BG","EPOCH":"2026-03-11T12:00:02.998944","MEAN_MOTION":15.12545848,"ECCENTRICITY":0.0001321,"INCLINATION":43.0012,"RA_OF_ASC_NODE":19.7619,"ARG_OF_PERICENTER":297.1219,"MEAN_ANOMALY":210.7035,"EPHEMERIS_TYPE":0,"CLASSIFICATION_TYPE":"U","NORAD_CAT_ID":56040,"ELEMENT_SET_NO":999,"REV_AT_EPOCH":580,"BSTAR":0.0010672,"MEAN_MOTION_DOT":0.00018758,"MEAN_MOTION_DDOT":0},{"OBJECT_NAME":"STARLINK-5800","OBJECT_ID":"2023-042BH","EPOCH":"2026-03-11T05:35:28.633920","MEAN_MOTION":15.02515598,"ECCENTRICITY":0.0001184,"INCLINATION":43.0066,"RA_OF_ASC_NODE":21.5507,"ARG_OF_PERICENTER":274.9708,"MEAN_ANOMALY":85.0999,"EPHEMERIS_TYPE":0,"CLASSIFICATION_TYPE":"U","NORAD_CAT_ID":56041,"ELEMENT_SET_NO":999,"REV_AT_EPOCH":16344,"BSTAR":-0.000313,"MEAN_MOTION_DOT":-4.427e-5,"MEAN_MOTION_DDOT":0},{"OBJECT_NAME":"STARLINK-6109","OBJECT_ID":"2023-046B","EPOCH":"2026-03-11T12:00:02.998944","MEAN_MOTION":15.07719177,"ECCENTRICITY":0.0002243,"INCLINATION":43.0003,"RA_OF_ASC_NODE":149.2575,"ARG_OF_PERICENTER":264.403,"MEAN_ANOMALY":61.8395,"EPHEMERIS_TYPE":0,"CLASSIFICATION_TYPE":"U","NORAD_CAT_ID":56094,"ELEMENT_SET_NO":999,"REV_AT_EPOCH":571,"BSTAR":0.0023901,"MEAN_MOTION_DOT":0.00037096,"MEAN_MOTION_DDOT":0},{"OBJECT_NAME":"STARLINK-6090","OBJECT_ID":"2023-046C","EPOCH":"2026-03-11T12:00:02.998944","MEAN_MOTION":15.08067743,"ECCENTRICITY":0.0002189,"INCLINATION":43.0002,"RA_OF_ASC_NODE":149.3269,"ARG_OF_PERICENTER":254.7168,"MEAN_ANOMALY":42.8691,"EPHEMERIS_TYPE":0,"CLASSIFICATION_TYPE":"U","NORAD_CAT_ID":56095,"ELEMENT_SET_NO":999,"REV_AT_EPOCH":581,"BSTAR":0.0024844,"MEAN_MOTION_DOT":0.00038948,"MEAN_MOTION_DDOT":0},{"OBJECT_NAME":"STARLINK-6089","OBJECT_ID":"2023-046D","EPOCH":"2026-03-11T12:00:02.998944","MEAN_MOTION":15.06731908,"ECCENTRICITY":0.0001293,"INCLINATION":43.0003,"RA_OF_ASC_NODE":149.26,"ARG_OF_PERICENTER":295.8796,"MEAN_ANOMALY":27.3556,"EPHEMERIS_TYPE":0,"CLASSIFICATION_TYPE":"U","NORAD_CAT_ID":56096,"ELEMENT_SET_NO":999,"REV_AT_EPOCH":576,"BSTAR":0.0025236,"MEAN_MOTION_DOT":0.00038143,"MEAN_MOTION_DDOT":0},{"OBJECT_NAME":"STARLINK-6077","OBJECT_ID":"2023-046E","EPOCH":"2026-03-11T09:05:14.432928","MEAN_MOTION":15.02534188,"ECCENTRICITY":0.0001038,"INCLINATION":43.0017,"RA_OF_ASC_NODE":97.9228,"ARG_OF_PERICENTER":265.1373,"MEAN_ANOMALY":94.935,"EPHEMERIS_TYPE":0,"CLASSIFICATION_TYPE":"U","NORAD_CAT_ID":56097,"ELEMENT_SET_NO":999,"REV_AT_EPOCH":16291,"BSTAR":6.6763e-6,"MEAN_MOTION_DOT":-1.13e-6,"MEAN_MOTION_DDOT":0},{"OBJECT_NAME":"STARLINK-6088","OBJECT_ID":"2023-046F","EPOCH":"2026-03-11T12:00:02.998944","MEAN_MOTION":15.08418868,"ECCENTRICITY":0.000206,"INCLINATION":43.0002,"RA_OF_ASC_NODE":149.2806,"ARG_OF_PERICENTER":260.6658,"MEAN_ANOMALY":57.3064,"EPHEMERIS_TYPE":0,"CLASSIFICATION_TYPE":"U","NORAD_CAT_ID":56098,"ELEMENT_SET_NO":999,"REV_AT_EPOCH":581,"BSTAR":0.002423,"MEAN_MOTION_DOT":0.00038343,"MEAN_MOTION_DDOT":0},{"OBJECT_NAME":"STARLINK-6076","OBJECT_ID":"2023-046H","EPOCH":"2026-03-11T12:00:02.998944","MEAN_MOTION":15.07914653,"ECCENTRICITY":0.000228,"INCLINATION":43.0015,"RA_OF_ASC_NODE":149.1144,"ARG_OF_PERICENTER":270.435,"MEAN_ANOMALY":115.3095,"EPHEMERIS_TYPE":0,"CLASSIFICATION_TYPE":"U","NORAD_CAT_ID":56100,"ELEMENT_SET_NO":999,"REV_AT_EPOCH":556,"BSTAR":0.0021064,"MEAN_MOTION_DOT":0.00032823,"MEAN_MOTION_DDOT":0},{"OBJECT_NAME":"STARLINK-6095","OBJECT_ID":"2023-046J","EPOCH":"2026-03-11T07:13:38.965152","MEAN_MOTION":15.02534746,"ECCENTRICITY":0.0001494,"INCLINATION":43.002,"RA_OF_ASC_NODE":150.2608,"ARG_OF_PERICENTER":272.8711,"MEAN_ANOMALY":87.196,"EPHEMERIS_TYPE":0,"CLASSIFICATION_TYPE":"U","NORAD_CAT_ID":56101,"ELEMENT_SET_NO":999,"REV_AT_EPOCH":16230,"BSTAR":0.00010317,"MEAN_MOTION_DOT":1.19e-5,"MEAN_MOTION_DDOT":0}]
